[{"OBJECT_NAME":"STARLINK-6286","OBJECT_ID":"2023-065BH","EPOCH":"2026-03-09T09:49:46.619904","MEAN_MOTION":15.02545533,"ECCENTRICITY":9.67e-5,"INCLINATION":43.0027,"RA_OF_ASC_NODE":224.7755,"ARG_OF_PERICENTER":268.8071,"MEAN_ANOMALY":91.2661,"EPHEMERIS_TYPE":0,"CLASSIFICATION_TYPE":"U","NORAD_CAT_ID":56558,"ELEMENT_SET_NO":999,"REV_AT_EPOCH":15643,"BSTAR":2.8804799e-5,"MEAN_MOTION_DOT":1.86e-6,"MEAN_MOTION_DDOT":0},{"OBJECT_NAME":"CZ-4C DEB","OBJECT_ID":"2018-031G","EPOCH":"2026-03-09T17:35:43.516320","MEAN_MOTION":15.0216174,"ECCENTRICITY":0.00078465,"INCLINATION":97.7704,"RA_OF_ASC_NODE":152.3432,"ARG_OF_PERICENTER":232.9325,"MEAN_ANOMALY":127.1182,"EPHEMERIS_TYPE":0,"CLASSIFICATION_TYPE":"U","NORAD_CAT_ID":43265,"ELEMENT_SET_NO":999,"REV_AT_EPOCH":42950,"BSTAR":0.00075767681,"MEAN_MOTION_DOT":9.924e-5,"MEAN_MOTION_DDOT":0}]
